EUTELSAT 21B            
1 38992U 12062B   25262.22855681  .00000111  00000+0  00000+0 0  9997
2 38992   0.0735  15.3034 0002812 163.5640 283.4225  1.00269658 47118
EUTELSAT 70B            
1 39020U 12069A   25262.16693653 -.00000062  00000+0  00000+0 0  9995
2 39020   0.0653 351.6844 0004002 189.0775 308.1698  1.00270974 46795
EUTELSAT 117 WEST A     
1 39122U 13012A   25262.20117000  .00000000  00000+0  00000+0 0  9990
2 39122   0.0149 178.5336 0002889   8.8835 126.5573  1.00269221 45714
EUTELSAT 7B             
1 39163U 13022A   25262.22569679  .00000029  00000+0  00000+0 0  9992
2 39163   0.0683 359.5051 0000774 355.3265  91.7885  1.00272779 45244
EXPRESS-AT1             
1 39612U 14010A   25262.16407652  .00000059  00000+0  00000+0 0  9997
2 39612   0.0203 208.0948 0000323 269.4753 355.8136  1.00273167 42108
EXPRESS-AT2             
1 39613U 14010B   25262.32345721 -.00000300  00000+0  00000+0 0  9994
2 39613   0.0229 249.0953 0000221 151.5681 214.1006  1.00272108 41786
EUTELSAT 3B             
1 39773U 14030A   25262.22822521  .00000001  00000+0  00000+0 0  9997
2 39773   0.0638 351.1646 0004303 189.1793 263.3067  1.00270291 41354
EUTELSAT 115 WEST B     
1 40425U 15010B   25262.20151668 -.00000044  00000+0  00000+0 0  9995
2 40425   0.0325  26.2732 0000089 100.6072 189.1218  1.00271467 38674
